CCSDS_OMM_VERS = 2.0
CREATION_DATE  = 
ORIGINATOR     = 

OBJECT_NAME    = STARLINK-35871
OBJECT_ID      = 2025-268K
CENTER_NAME    = EARTH
REF_FRAME      = TEME
TIME_SYSTEM    = UTC
MEAN_ELEMENT_THEORY = SGP/SGP4

EPOCH          = 2025-12-17T07:01:10.187328
MEAN_MOTION    = 15.50616432
ECCENTRICITY   = .00072002
INCLINATION    = 43.0041
RA_OF_ASC_NODE = 94.5317
ARG_OF_PERICENTER = 285.5743
MEAN_ANOMALY   = 74.4322

EPHEMERIS_TYPE = 0
CLASSIFICATION_TYPE = U
NORAD_CAT_ID   = 66566
ELEMENT_SET_NO = 999
REV_AT_EPOCH   = 533
BSTAR          = .10352337E-2
MEAN_MOTION_DOT = .61001E-3
MEAN_MOTION_DDOT = 0

CCSDS_OMM_VERS = 2.0
CREATION_DATE  = 
ORIGINATOR     = 

OBJECT_NAME    = STARLINK-35825
OBJECT_ID      = 2025-268L
CENTER_NAME    = EARTH
REF_FRAME      = TEME
TIME_SYSTEM    = UTC
MEAN_ELEMENT_THEORY = SGP/SGP4

EPOCH          = 2025-12-17T07:00:40.402656
MEAN_MOTION    = 15.50623322
ECCENTRICITY   = .00011141
INCLINATION    = 42.9945
RA_OF_ASC_NODE = 94.5273
ARG_OF_PERICENTER = 291.8861
MEAN_ANOMALY   = 68.1880

EPHEMERIS_TYPE = 0
CLASSIFICATION_TYPE = U
NORAD_CAT_ID   = 66567
ELEMENT_SET_NO = 999
REV_AT_EPOCH   = 533
BSTAR          = .1182674E-2
MEAN_MOTION_DOT = .69771E-3
MEAN_MOTION_DDOT = 0

CCSDS_OMM_VERS = 2.0
CREATION_DATE  = 
ORIGINATOR     = 

OBJECT_NAME    = STARLINK-35803
OBJECT_ID      = 2025-268M
CENTER_NAME    = EARTH
REF_FRAME      = TEME
TIME_SYSTEM    = UTC
MEAN_ELEMENT_THEORY = SGP/SGP4

EPOCH          = 2025-12-16T13:59:50.614080
MEAN_MOTION    = 15.50670035
ECCENTRICITY   = .00019658
INCLINATION    = 43.0008
RA_OF_ASC_NODE = 98.6687
ARG_OF_PERICENTER = 257.8965
MEAN_ANOMALY   = 102.1675

EPHEMERIS_TYPE = 0
CLASSIFICATION_TYPE = U
NORAD_CAT_ID   = 66568
ELEMENT_SET_NO = 999
REV_AT_EPOCH   = 522
BSTAR          = .18595196E-2
MEAN_MOTION_DOT = .110663E-2
MEAN_MOTION_DDOT = 0

CCSDS_OMM_VERS = 2.0
CREATION_DATE  = 
ORIGINATOR     = 

OBJECT_NAME    = STARLINK-35835
OBJECT_ID      = 2025-268N
CENTER_NAME    = EARTH
REF_FRAME      = TEME
TIME_SYSTEM    = UTC
MEAN_ELEMENT_THEORY = SGP/SGP4

EPOCH          = 2025-12-15T17:53:30.134688
MEAN_MOTION    = 15.50581218
ECCENTRICITY   = .00013774
INCLINATION    = 43.0003
RA_OF_ASC_NODE = 103.5637
ARG_OF_PERICENTER = 270.1280
MEAN_ANOMALY   = 89.9422

EPHEMERIS_TYPE = 0
CLASSIFICATION_TYPE = U
NORAD_CAT_ID   = 66569
ELEMENT_SET_NO = 999
REV_AT_EPOCH   = 509
BSTAR          = .14471406E-2
MEAN_MOTION_DOT = .85494E-3
MEAN_MOTION_DDOT = 0

CCSDS_OMM_VERS = 2.0
CREATION_DATE  = 
ORIGINATOR     = 

OBJECT_NAME    = STARLINK-35834
OBJECT_ID      = 2025-268P
CENTER_NAME    = EARTH
REF_FRAME      = TEME
TIME_SYSTEM    = UTC
MEAN_ELEMENT_THEORY = SGP/SGP4

EPOCH          = 2025-12-17T00:00:02.999808
MEAN_MOTION    = 15.50542009
ECCENTRICITY   = .0001628
INCLINATION    = 43.0008
RA_OF_ASC_NODE = 96.2217
ARG_OF_PERICENTER = 261.3551
MEAN_ANOMALY   = 272.0120

EPHEMERIS_TYPE = 0
CLASSIFICATION_TYPE = U
NORAD_CAT_ID   = 66570
ELEMENT_SET_NO = 999
REV_AT_EPOCH   = 535
BSTAR          = .57210059E-3
MEAN_MOTION_DOT = .33319E-3
MEAN_MOTION_DDOT = 0

CCSDS_OMM_VERS = 2.0
CREATION_DATE  = 
ORIGINATOR     = 

OBJECT_NAME    = STARLINK-35836
OBJECT_ID      = 2025-268Q
CENTER_NAME    = EARTH
REF_FRAME      = TEME
TIME_SYSTEM    = UTC
MEAN_ELEMENT_THEORY = SGP/SGP4

EPOCH          = 2025-12-15T16:19:45.764256
MEAN_MOTION    = 15.50585283
ECCENTRICITY   = .00014873
INCLINATION    = 42.9954
RA_OF_ASC_NODE = 103.9347
ARG_OF_PERICENTER = 312.1791
MEAN_ANOMALY   = 47.8943

EPHEMERIS_TYPE = 0
CLASSIFICATION_TYPE = U
NORAD_CAT_ID   = 66571
ELEMENT_SET_NO = 999
REV_AT_EPOCH   = 508
BSTAR          = .11259195E-2
MEAN_MOTION_DOT = .66287E-3
MEAN_MOTION_DDOT = 0

CCSDS_OMM_VERS = 2.0
CREATION_DATE  = 
ORIGINATOR     = 

OBJECT_NAME    = STARLINK-35870
OBJECT_ID      = 2025-268R
CENTER_NAME    = EARTH
REF_FRAME      = TEME
TIME_SYSTEM    = UTC
MEAN_ELEMENT_THEORY = SGP/SGP4

EPOCH          = 2025-12-17T06:57:42.835104
MEAN_MOTION    = 15.51448552
ECCENTRICITY   = .00028728
INCLINATION    = 43.0014
RA_OF_ASC_NODE = 94.5137
ARG_OF_PERICENTER = 179.5704
MEAN_ANOMALY   = 180.5159

EPHEMERIS_TYPE = 0
CLASSIFICATION_TYPE = U
NORAD_CAT_ID   = 66572
ELEMENT_SET_NO = 999
REV_AT_EPOCH   = 533
BSTAR          = .30084014E-2
MEAN_MOTION_DOT = .186105E-2
MEAN_MOTION_DDOT = 0

CCSDS_OMM_VERS = 2.0
CREATION_DATE  = 
ORIGINATOR     = 

OBJECT_NAME    = STARLINK-35650
OBJECT_ID      = 2025-268S
CENTER_NAME    = EARTH
REF_FRAME      = TEME
TIME_SYSTEM    = UTC
MEAN_ELEMENT_THEORY = SGP/SGP4

EPOCH          = 2025-12-16T15:29:39.161760
MEAN_MOTION    = 15.51253867
ECCENTRICITY   = .00025406
INCLINATION    = 42.9964
RA_OF_ASC_NODE = 98.2753
ARG_OF_PERICENTER = 312.0819
MEAN_ANOMALY   = 47.9825

EPHEMERIS_TYPE = 0
CLASSIFICATION_TYPE = U
NORAD_CAT_ID   = 66573
ELEMENT_SET_NO = 999
REV_AT_EPOCH   = 523
BSTAR          = .2315295E-2
MEAN_MOTION_DOT = .141337E-2
MEAN_MOTION_DDOT = 0

CCSDS_OMM_VERS = 2.0
CREATION_DATE  = 
ORIGINATOR     = 

OBJECT_NAME    = STARLINK-35812
OBJECT_ID      = 2025-268T
CENTER_NAME    = EARTH
REF_FRAME      = TEME
TIME_SYSTEM    = UTC
MEAN_ELEMENT_THEORY = SGP/SGP4

EPOCH          = 2025-12-16T15:29:38.663232
MEAN_MOTION    = 15.50718771
ECCENTRICITY   = .00015507
INCLINATION    = 43.0004
RA_OF_ASC_NODE = 98.2749
ARG_OF_PERICENTER = 319.1050
MEAN_ANOMALY   = 40.9693

EPHEMERIS_TYPE = 0
CLASSIFICATION_TYPE = U
NORAD_CAT_ID   = 66574
ELEMENT_SET_NO = 999
REV_AT_EPOCH   = 523
BSTAR          = .1231325E-2
MEAN_MOTION_DOT = .72934E-3
MEAN_MOTION_DDOT = 0

CCSDS_OMM_VERS = 2.0
CREATION_DATE  = 
ORIGINATOR     = 

OBJECT_NAME    = STARLINK-35810
OBJECT_ID      = 2025-268U
CENTER_NAME    = EARTH
REF_FRAME      = TEME
TIME_SYSTEM    = UTC
MEAN_ELEMENT_THEORY = SGP/SGP4

EPOCH          = 2025-12-17T00:00:02.999808
MEAN_MOTION    = 15.50546189
ECCENTRICITY   = .0001582
INCLINATION    = 43.0008
RA_OF_ASC_NODE = 96.1968
ARG_OF_PERICENTER = 270.7248
MEAN_ANOMALY   = 272.2364

EPHEMERIS_TYPE = 0
CLASSIFICATION_TYPE = U
NORAD_CAT_ID   = 66575
ELEMENT_SET_NO = 999
REV_AT_EPOCH   = 535
BSTAR          = .17629698E-3
MEAN_MOTION_DOT = .10002E-3
MEAN_MOTION_DDOT = 0

CCSDS_OMM_VERS = 2.0
CREATION_DATE  = 
ORIGINATOR     = 

OBJECT_NAME    = STARLINK-35814
OBJECT_ID      = 2025-268V
CENTER_NAME    = EARTH
REF_FRAME      = TEME
TIME_SYSTEM    = UTC
MEAN_ELEMENT_THEORY = SGP/SGP4

EPOCH          = 2025-12-17T06:56:14.825472
MEAN_MOTION    = 15.52102983
ECCENTRICITY   = .00080554
INCLINATION    = 43.0041
RA_OF_ASC_NODE = 94.5045
ARG_OF_PERICENTER = 236.9749
MEAN_ANOMALY   = 123.0338

EPHEMERIS_TYPE = 0
CLASSIFICATION_TYPE = U
NORAD_CAT_ID   = 66576
ELEMENT_SET_NO = 999
REV_AT_EPOCH   = 533
BSTAR          = .13110247E-2
MEAN_MOTION_DOT = .81822E-3
MEAN_MOTION_DDOT = 0

CCSDS_OMM_VERS = 2.0
CREATION_DATE  = 
ORIGINATOR     = 

OBJECT_NAME    = STARLINK-35815
OBJECT_ID      = 2025-268W
CENTER_NAME    = EARTH
REF_FRAME      = TEME
TIME_SYSTEM    = UTC
MEAN_ELEMENT_THEORY = SGP/SGP4

EPOCH          = 2025-12-17T06:55:45.230016
MEAN_MOTION    = 15.50614762
ECCENTRICITY   = .00005558
INCLINATION    = 42.9969
RA_OF_ASC_NODE = 94.4986
ARG_OF_PERICENTER = 117.6284
MEAN_ANOMALY   = 242.4632

EPHEMERIS_TYPE = 0
CLASSIFICATION_TYPE = U
NORAD_CAT_ID   = 66577
ELEMENT_SET_NO = 999
REV_AT_EPOCH   = 533
BSTAR          = .10581413E-2
MEAN_MOTION_DOT = .62309E-3
MEAN_MOTION_DDOT = 0

