STARLINK-35871          
1 66566U 25268K   25351.29247902  .00061001  00000+0  10352-2 0  9993
2 66566  43.0041  94.5317 0007200 285.5743  74.4322 15.50616432  5331
STARLINK-35825          
1 66567U 25268L   25351.29213429  .00069771  00000+0  11827-2 0  9991
2 66567  42.9945  94.5273 0001114 291.8861  68.1880 15.50623322  5338
STARLINK-35803          
1 66568U 25268M   25350.58322470  .00110663  00000+0  18595-2 0  9996
2 66568  43.0008  98.6687 0001965 257.8965 102.1675 15.50670035  5228
STARLINK-35835          
1 66569U 25268N   25349.74548767  .00085494  00000+0  14471-2 0  9994
2 66569  43.0003 103.5637 0001377 270.1280  89.9422 15.50581218  5091
STARLINK-35834          
1 66570U 25268P   25351.00003472  .00033319  00000+0  57210-3 0  9995
2 66570  43.0008  96.2217 0001628 261.3551 272.0120 15.50542009  5356
STARLINK-35836          
1 66571U 25268Q   25349.68039079  .00066287  00000+0  11259-2 0  9991
2 66571  42.9954 103.9347 0001487 312.1791  47.8943 15.50585283  5081
STARLINK-35870          
1 66572U 25268R   25351.29007911  .00186105  00000+0  30084-2 0  9991
2 66572  43.0014  94.5137 0002872 179.5704 180.5159 15.51448552  5331
STARLINK-35650          
1 66573U 25268S   25350.64559215  .00141337  00000+0  23153-2 0  9996
2 66573  42.9964  98.2753 0002540 312.0819  47.9825 15.51253867  5230
STARLINK-35812          
1 66574U 25268T   25350.64558638  .00072934  00000+0  12313-2 0  9997
2 66574  43.0004  98.2749 0001550 319.1050  40.9693 15.50718771  5233
STARLINK-35810          
1 66575U 25268U   25351.00003472  .00010002  00000+0  17630-3 0  9996
2 66575  43.0008  96.1968 0001582 270.7248 272.2364 15.50546189  5354
STARLINK-35814          
1 66576U 25268V   25351.28906048  .00081822  00000+0  13110-2 0  9994
2 66576  43.0041  94.5045 0008055 236.9749 123.0338 15.52102983  5336
STARLINK-35815          
1 66577U 25268W   25351.28871794  .00062309  00000+0  10581-2 0  9992
2 66577  42.9969  94.4986 0000555 117.6284 242.4632 15.50614762  5337
